ONEWEB-0212             
1 48791U 21045AA  25210.87895081 -.00000114  00000+0 -33625-3 0  9996
2 48791  87.9078 323.4517 0001879  98.2641 261.8703 13.15548754202059
ONEWEB-0227             
1 48792U 21045AB  25210.87814369 -.00000133  00000+0 -38628-3 0  9996
2 48792  87.9079 323.4714 0001995  94.9860 265.1498 13.15547969202005
ONEWEB-0226             
1 48793U 21045AC  25210.87181082 -.00000081  00000+0 -25041-3 0  9993
2 48793  87.9085 323.4768 0002290  95.4092 264.7300 13.15549054203098
ONEWEB-0224             
1 48794U 21045AD  25211.59594941  .00000151  00000+0  36820-3 0  9999
2 48794  87.9080 323.3706 0001563  68.5529 291.5768 13.15547187203117
ONEWEB-0233             
1 48795U 21045AE  25211.37237456  .00000210  00000+0  52443-3 0  9996
2 48795  87.9086 323.4231 0002056  89.0411 271.0955 13.15550688203092
ONEWEB-0190             
1 48796U 21045AF  25211.05561845  .00000071  00000+0  15359-3 0  9994
2 48796  87.9086 323.4507 0002520  84.0581 276.0837 13.15547308203132
ONEWEB-0236             
1 48797U 21045AG  25210.84486753  .00000107  00000+0  25148-3 0  9992
2 48797  87.9094 323.5018 0001761  98.2254 261.9076 13.15547363201878
ONEWEB-0248             
1 48798U 21045AH  25210.85754839  .00000141  00000+0  34174-3 0  9994
2 48798  87.9086 323.4536 0001987  77.5685 282.5667 13.15550189202036
ONEWEB-0225             
1 48799U 21045AJ  25211.56423301 -.00000047  00000+0 -15981-3 0  9993
2 48799  87.9089 323.3453 0002358  85.6605 274.4795 13.15546758203278
ONEWEB-0215             
1 48800U 21045AK  25211.30597032  .00000221  00000+0  55415-3 0  9999
2 48800  87.9082 323.3474 0002232  80.2648 279.8734 13.15547956203099
ONEWEB-0216             
1 48801U 21045AL  25210.85912996  .00000023  00000+0  26885-4 0  9999
2 48801  87.9079 323.4814 0002115 100.4311 259.7058 13.15548006201920
ONEWEB-0239             
1 48802U 21045AM  25210.86388943 -.00000042  00000+0 -14668-3 0  9998
2 48802  87.9086 323.4927 0002078  75.0321 285.1039 13.15547287201966
ONEWEB-0249             
1 48967U 21060A   25211.20496735  .00000082  00000+0  18071-3 0  9999
2 48967  87.9049 292.9610 0001931  97.0462 263.0888 13.16595877198537
ONEWEB-0250             
1 48968U 21060B   25210.75556165  .00000047  00000+0  77653-4 0  9996
2 48968  87.9048 291.8627 0001442  69.7175 290.4116 13.25810449197494
ONEWEB-0252             
1 48970U 21060D   25211.23663634  .00000028  00000+0  38457-4 0  9991
2 48970  87.9050 292.9475 0002237 104.1469 255.9911 13.16595124198586
ONEWEB-0253             
1 48971U 21060E   25211.22555346  .00000132  00000+0  31252-3 0  9992
2 48971  87.9047 292.9538 0002138  93.5283 266.6092 13.16596115198500
ONEWEB-0254             
1 48972U 21060F   25210.93107734 -.00000045  00000+0 -15257-3 0  9996
2 48972  87.9052 292.9980 0002050  85.7001 274.4364 13.16595129197188
