[{"OBJECT_NAME":"ONEWEB-0212","OBJECT_ID":"2021-045AA","EPOCH":"2025-07-29T21:05:41.349984","MEAN_MOTION":13.15548754,"ECCENTRICITY":0.0001879,"INCLINATION":87.9078,"RA_OF_ASC_NODE":323.4517,"ARG_OF_PERICENTER":98.2641,"MEAN_ANOMALY":261.8703,"EPHEMERIS_TYPE":0,"CLASSIFICATION_TYPE":"U","NORAD_CAT_ID":48791,"ELEMENT_SET_NO":999,"REV_AT_EPOCH":20205,"BSTAR":-0.00033625,"MEAN_MOTION_DOT":-1.14e-6,"MEAN_MOTION_DDOT":0},{"OBJECT_NAME":"ONEWEB-0227","OBJECT_ID":"2021-045AB","EPOCH":"2025-07-29T21:04:31.614816","MEAN_MOTION":13.15547969,"ECCENTRICITY":0.0001995,"INCLINATION":87.9079,"RA_OF_ASC_NODE":323.4714,"ARG_OF_PERICENTER":94.986,"MEAN_ANOMALY":265.1498,"EPHEMERIS_TYPE":0,"CLASSIFICATION_TYPE":"U","NORAD_CAT_ID":48792,"ELEMENT_SET_NO":999,"REV_AT_EPOCH":20200,"BSTAR":-0.00038628,"MEAN_MOTION_DOT":-1.33e-6,"MEAN_MOTION_DDOT":0},{"OBJECT_NAME":"ONEWEB-0226","OBJECT_ID":"2021-045AC","EPOCH":"2025-07-29T20:55:24.454848","MEAN_MOTION":13.15549054,"ECCENTRICITY":0.000229,"INCLINATION":87.9085,"RA_OF_ASC_NODE":323.4768,"ARG_OF_PERICENTER":95.4092,"MEAN_ANOMALY":264.73,"EPHEMERIS_TYPE":0,"CLASSIFICATION_TYPE":"U","NORAD_CAT_ID":48793,"ELEMENT_SET_NO":999,"REV_AT_EPOCH":20309,"BSTAR":-0.00025041,"MEAN_MOTION_DOT":-8.1e-7,"MEAN_MOTION_DDOT":0},{"OBJECT_NAME":"ONEWEB-0224","OBJECT_ID":"2021-045AD","EPOCH":"2025-07-30T14:18:10.029024","MEAN_MOTION":13.15547187,"ECCENTRICITY":0.0001563,"INCLINATION":87.908,"RA_OF_ASC_NODE":323.3706,"ARG_OF_PERICENTER":68.5529,"MEAN_ANOMALY":291.5768,"EPHEMERIS_TYPE":0,"CLASSIFICATION_TYPE":"U","NORAD_CAT_ID":48794,"ELEMENT_SET_NO":999,"REV_AT_EPOCH":20311,"BSTAR":0.0003682,"MEAN_MOTION_DOT":1.51e-6,"MEAN_MOTION_DDOT":0},{"OBJECT_NAME":"ONEWEB-0233","OBJECT_ID":"2021-045AE","EPOCH":"2025-07-30T08:56:13.161984","MEAN_MOTION":13.15550688,"ECCENTRICITY":0.0002056,"INCLINATION":87.9086,"RA_OF_ASC_NODE":323.4231,"ARG_OF_PERICENTER":89.0411,"MEAN_ANOMALY":271.0955,"EPHEMERIS_TYPE":0,"CLASSIFICATION_TYPE":"U","NORAD_CAT_ID":48795,"ELEMENT_SET_NO":999,"REV_AT_EPOCH":20309,"BSTAR":0.00052443,"MEAN_MOTION_DOT":2.1e-6,"MEAN_MOTION_DDOT":0},{"OBJECT_NAME":"ONEWEB-0190","OBJECT_ID":"2021-045AF","EPOCH":"2025-07-30T01:20:05.434080","MEAN_MOTION":13.15547308,"ECCENTRICITY":0.000252,"INCLINATION":87.9086,"RA_OF_ASC_NODE":323.4507,"ARG_OF_PERICENTER":84.0581,"MEAN_ANOMALY":276.0837,"EPHEMERIS_TYPE":0,"CLASSIFICATION_TYPE":"U","NORAD_CAT_ID":48796,"ELEMENT_SET_NO":999,"REV_AT_EPOCH":20313,"BSTAR":0.00015359,"MEAN_MOTION_DOT":7.1e-7,"MEAN_MOTION_DDOT":0},{"OBJECT_NAME":"ONEWEB-0236","OBJECT_ID":"2021-045AG","EPOCH":"2025-07-29T20:16:36.554592","MEAN_MOTION":13.15547363,"ECCENTRICITY":0.0001761,"INCLINATION":87.9094,"RA_OF_ASC_NODE":323.5018,"ARG_OF_PERICENTER":98.2254,"MEAN_ANOMALY":261.9076,"EPHEMERIS_TYPE":0,"CLASSIFICATION_TYPE":"U","NORAD_CAT_ID":48797,"ELEMENT_SET_NO":999,"REV_AT_EPOCH":20187,"BSTAR":0.00025148,"MEAN_MOTION_DOT":1.07e-6,"MEAN_MOTION_DDOT":0},{"OBJECT_NAME":"ONEWEB-0248","OBJECT_ID":"2021-045AH","EPOCH":"2025-07-29T20:34:52.180896","MEAN_MOTION":13.15550189,"ECCENTRICITY":0.0001987,"INCLINATION":87.9086,"RA_OF_ASC_NODE":323.4536,"ARG_OF_PERICENTER":77.5685,"MEAN_ANOMALY":282.5667,"EPHEMERIS_TYPE":0,"CLASSIFICATION_TYPE":"U","NORAD_CAT_ID":48798,"ELEMENT_SET_NO":999,"REV_AT_EPOCH":20203,"BSTAR":0.00034174,"MEAN_MOTION_DOT":1.41e-6,"MEAN_MOTION_DDOT":0},{"OBJECT_NAME":"ONEWEB-0225","OBJECT_ID":"2021-045AJ","EPOCH":"2025-07-30T13:32:29.732064","MEAN_MOTION":13.15546758,"ECCENTRICITY":0.0002358,"INCLINATION":87.9089,"RA_OF_ASC_NODE":323.3453,"ARG_OF_PERICENTER":85.6605,"MEAN_ANOMALY":274.4795,"EPHEMERIS_TYPE":0,"CLASSIFICATION_TYPE":"U","NORAD_CAT_ID":48799,"ELEMENT_SET_NO":999,"REV_AT_EPOCH":20327,"BSTAR":-0.00015981,"MEAN_MOTION_DOT":-4.7e-7,"MEAN_MOTION_DDOT":0},{"OBJECT_NAME":"ONEWEB-0215","OBJECT_ID":"2021-045AK","EPOCH":"2025-07-30T07:20:35.835648","MEAN_MOTION":13.15547956,"ECCENTRICITY":0.0002232,"INCLINATION":87.9082,"RA_OF_ASC_NODE":323.3474,"ARG_OF_PERICENTER":80.2648,"MEAN_ANOMALY":279.8734,"EPHEMERIS_TYPE":0,"CLASSIFICATION_TYPE":"U","NORAD_CAT_ID":48800,"ELEMENT_SET_NO":999,"REV_AT_EPOCH":20309,"BSTAR":0.00055415,"MEAN_MOTION_DOT":2.21e-6,"MEAN_MOTION_DDOT":0},{"OBJECT_NAME":"ONEWEB-0216","OBJECT_ID":"2021-045AL","EPOCH":"2025-07-29T20:37:08.828544","MEAN_MOTION":13.15548006,"ECCENTRICITY":0.0002115,"INCLINATION":87.9079,"RA_OF_ASC_NODE":323.4814,"ARG_OF_PERICENTER":100.4311,"MEAN_ANOMALY":259.7058,"EPHEMERIS_TYPE":0,"CLASSIFICATION_TYPE":"U","NORAD_CAT_ID":48801,"ELEMENT_SET_NO":999,"REV_AT_EPOCH":20192,"BSTAR":2.6885e-5,"MEAN_MOTION_DOT":2.3e-7,"MEAN_MOTION_DDOT":0},{"OBJECT_NAME":"ONEWEB-0239","OBJECT_ID":"2021-045AM","EPOCH":"2025-07-29T20:44:00.046752","MEAN_MOTION":13.15547287,"ECCENTRICITY":0.0002078,"INCLINATION":87.9086,"RA_OF_ASC_NODE":323.4927,"ARG_OF_PERICENTER":75.0321,"MEAN_ANOMALY":285.1039,"EPHEMERIS_TYPE":0,"CLASSIFICATION_TYPE":"U","NORAD_CAT_ID":48802,"ELEMENT_SET_NO":999,"REV_AT_EPOCH":20196,"BSTAR":-0.00014668,"MEAN_MOTION_DOT":-4.2e-7,"MEAN_MOTION_DDOT":0},{"OBJECT_NAME":"ONEWEB-0249","OBJECT_ID":"2021-060A","EPOCH":"2025-07-30T04:55:09.179040","MEAN_MOTION":13.16595877,"ECCENTRICITY":0.0001931,"INCLINATION":87.9049,"RA_OF_ASC_NODE":292.961,"ARG_OF_PERICENTER":97.0462,"MEAN_ANOMALY":263.0888,"EPHEMERIS_TYPE":0,"CLASSIFICATION_TYPE":"U","NORAD_CAT_ID":48967,"ELEMENT_SET_NO":999,"REV_AT_EPOCH":19853,"BSTAR":0.00018071,"MEAN_MOTION_DOT":8.2e-7,"MEAN_MOTION_DDOT":0},{"OBJECT_NAME":"ONEWEB-0250","OBJECT_ID":"2021-060B","EPOCH":"2025-07-29T18:08:00.526560","MEAN_MOTION":13.25810449,"ECCENTRICITY":0.0001442,"INCLINATION":87.9048,"RA_OF_ASC_NODE":291.8627,"ARG_OF_PERICENTER":69.7175,"MEAN_ANOMALY":290.4116,"EPHEMERIS_TYPE":0,"CLASSIFICATION_TYPE":"U","NORAD_CAT_ID":48968,"ELEMENT_SET_NO":999,"REV_AT_EPOCH":19749,"BSTAR":7.7653e-5,"MEAN_MOTION_DOT":4.7e-7,"MEAN_MOTION_DDOT":0},{"OBJECT_NAME":"ONEWEB-0252","OBJECT_ID":"2021-060D","EPOCH":"2025-07-30T05:40:45.379776","MEAN_MOTION":13.16595124,"ECCENTRICITY":0.0002237,"INCLINATION":87.905,"RA_OF_ASC_NODE":292.9475,"ARG_OF_PERICENTER":104.1469,"MEAN_ANOMALY":255.9911,"EPHEMERIS_TYPE":0,"CLASSIFICATION_TYPE":"U","NORAD_CAT_ID":48970,"ELEMENT_SET_NO":999,"REV_AT_EPOCH":19858,"BSTAR":3.8457e-5,"MEAN_MOTION_DOT":2.8e-7,"MEAN_MOTION_DDOT":0},{"OBJECT_NAME":"ONEWEB-0253","OBJECT_ID":"2021-060E","EPOCH":"2025-07-30T05:24:47.818944","MEAN_MOTION":13.16596115,"ECCENTRICITY":0.0002138,"INCLINATION":87.9047,"RA_OF_ASC_NODE":292.9538,"ARG_OF_PERICENTER":93.5283,"MEAN_ANOMALY":266.6092,"EPHEMERIS_TYPE":0,"CLASSIFICATION_TYPE":"U","NORAD_CAT_ID":48971,"ELEMENT_SET_NO":999,"REV_AT_EPOCH":19850,"BSTAR":0.00031252,"MEAN_MOTION_DOT":1.32e-6,"MEAN_MOTION_DDOT":0},{"OBJECT_NAME":"ONEWEB-0254","OBJECT_ID":"2021-060F","EPOCH":"2025-07-29T22:20:45.082176","MEAN_MOTION":13.16595129,"ECCENTRICITY":0.000205,"INCLINATION":87.9052,"RA_OF_ASC_NODE":292.998,"ARG_OF_PERICENTER":85.7001,"MEAN_ANOMALY":274.4364,"EPHEMERIS_TYPE":0,"CLASSIFICATION_TYPE":"U","NORAD_CAT_ID":48972,"ELEMENT_SET_NO":999,"REV_AT_EPOCH":19718,"BSTAR":-0.00015257,"MEAN_MOTION_DOT":-4.5e-7,"MEAN_MOTION_DDOT":0}]
